ONEWEB-0539             
1 54644U 22166C   25258.58742680 -.00000029  00000+0 -10289-3 0  9997
2 54644  87.9198 298.7709 0001963  88.9745 271.1614 13.21824911135260
ONEWEB-0540             
1 54645U 22166D   25258.59386011  .00000004  00000+0 -22680-4 0  9992
2 54645  87.9205 298.8066 0001972  88.3586 271.7774 13.21824289135254
ONEWEB-0542             
1 54646U 22166E   25258.59686857  .00000030  00000+0  40597-4 0  9999
2 54646  87.9197 298.7667 0002134  86.4196 273.7182 13.21823801135263
ONEWEB-0545             
1 54647U 22166F   25258.56373755 -.00000022  00000+0 -84519-4 0  9992
2 54647  87.9200 298.7921 0002052  79.3061 280.8304 13.21823113135220
ONEWEB-0580             
1 54648U 22166G   25258.38556080  .00000095  00000+0  19759-3 0  9998
2 54648  87.9205 298.8257 0002207  86.9074 273.2312 13.21824189135240
ONEWEB-0582             
1 54649U 22166H   25258.57951986  .00000024  00000+0  26546-4 0  9999
2 54649  87.9196 298.7810 0002260  84.5456 275.5936 13.21823207135248
ONEWEB-0583             
1 54650U 22166J   25258.59056280  .00000042  00000+0  69330-4 0  9994
2 54650  87.9204 298.8039 0001940  90.4979 269.6378 13.21823688135252
ONEWEB-0584             
1 54651U 22166K   25258.61106351  .00000078  00000+0  15613-3 0  9996
2 54651  87.9204 298.7843 0002275  88.6389 271.5006 13.21824244135249
ONEWEB-0585             
1 54652U 22166L   25258.48489924 -.00000081  00000+0 -22855-3 0  9994
2 54652  87.9203 298.7953 0001867  98.2438 261.8908 13.21827379135233
ONEWEB-0586             
1 54653U 22166M   25258.57322154 -.00000063  00000+0 -18316-3 0  9993
2 54653  87.9205 298.8025 0002004  89.5709 270.5654 13.21824141135245
ONEWEB-0587             
1 54654U 22166N   25258.58269688 -.00000096  00000+0 -26469-3 0  9991
2 54654  87.9209 298.7484 0001818 106.7632 253.3702 13.21824964135401
ONEWEB-0589             
1 54655U 22166P   25258.57006476 -.00000013  00000+0 -61842-4 0  9999
2 54655  87.9204 298.7946 0002617  81.8823 278.2608 13.21824006135265
ONEWEB-0590             
1 54656U 22166Q   25258.59359452  .00000046  00000+0  78687-4 0  9996
2 54656  87.9199 298.7663 0002336 102.2423 257.8973 13.21826015135256
ONEWEB-0591             
1 54657U 22166R   25258.60633251  .00000067  00000+0  13131-3 0  9996
2 54657  87.9202 298.7876 0002051  92.7985 267.3384 13.21823772135280
ONEWEB-0592             
1 54658U 22166S   25258.60948973  .00000065  00000+0  12669-3 0  9990
2 54658  87.9209 298.7418 0002062  93.9066 266.2303 13.21823802135165
ONEWEB-0593             
1 54659U 22166T   25258.40604403 -.00000056  00000+0 -16686-3 0  9991
2 54659  87.9203 298.8175 0002029  90.5108 269.6258 13.21823312135245
