[{"OBJECT_NAME":"ONEWEB-0539","OBJECT_ID":"2022-166C","EPOCH":"2025-09-15T14:05:53.675520","MEAN_MOTION":13.21824911,"ECCENTRICITY":0.00019636,"INCLINATION":87.9198,"RA_OF_ASC_NODE":298.7709,"ARG_OF_PERICENTER":88.9745,"MEAN_ANOMALY":271.1614,"EPHEMERIS_TYPE":0,"CLASSIFICATION_TYPE":"U","NORAD_CAT_ID":54644,"ELEMENT_SET_NO":999,"REV_AT_EPOCH":13526,"BSTAR":-0.00010289084,"MEAN_MOTION_DOT":-2.9e-7,"MEAN_MOTION_DDOT":0},{"OBJECT_NAME":"ONEWEB-0540","OBJECT_ID":"2022-166D","EPOCH":"2025-09-15T14:15:09.513504","MEAN_MOTION":13.21824289,"ECCENTRICITY":0.00019727,"INCLINATION":87.9205,"RA_OF_ASC_NODE":298.8066,"ARG_OF_PERICENTER":88.3586,"MEAN_ANOMALY":271.7774,"EPHEMERIS_TYPE":0,"CLASSIFICATION_TYPE":"U","NORAD_CAT_ID":54645,"ELEMENT_SET_NO":999,"REV_AT_EPOCH":13525,"BSTAR":-2.2680173e-5,"MEAN_MOTION_DOT":4.0e-8,"MEAN_MOTION_DDOT":0},{"OBJECT_NAME":"ONEWEB-0542","OBJECT_ID":"2022-166E","EPOCH":"2025-09-15T14:19:29.444448","MEAN_MOTION":13.21823801,"ECCENTRICITY":0.00021346,"INCLINATION":87.9197,"RA_OF_ASC_NODE":298.7667,"ARG_OF_PERICENTER":86.4196,"MEAN_ANOMALY":273.7182,"EPHEMERIS_TYPE":0,"CLASSIFICATION_TYPE":"U","NORAD_CAT_ID":54646,"ELEMENT_SET_NO":999,"REV_AT_EPOCH":13526,"BSTAR":4.0596745e-5,"MEAN_MOTION_DOT":3.0e-7,"MEAN_MOTION_DDOT":0},{"OBJECT_NAME":"ONEWEB-0545","OBJECT_ID":"2022-166F","EPOCH":"2025-09-15T13:31:46.924320","MEAN_MOTION":13.21823113,"ECCENTRICITY":0.00020528,"INCLINATION":87.92,"RA_OF_ASC_NODE":298.7921,"ARG_OF_PERICENTER":79.3061,"MEAN_ANOMALY":280.8304,"EPHEMERIS_TYPE":0,"CLASSIFICATION_TYPE":"U","NORAD_CAT_ID":54647,"ELEMENT_SET_NO":999,"REV_AT_EPOCH":13522,"BSTAR":-8.4519106e-5,"MEAN_MOTION_DOT":-2.2e-7,"MEAN_MOTION_DDOT":0},{"OBJECT_NAME":"ONEWEB-0580","OBJECT_ID":"2022-166G","EPOCH":"2025-09-15T09:15:12.453120","MEAN_MOTION":13.21824189,"ECCENTRICITY":0.00022071,"INCLINATION":87.9205,"RA_OF_ASC_NODE":298.8257,"ARG_OF_PERICENTER":86.9074,"MEAN_ANOMALY":273.2312,"EPHEMERIS_TYPE":0,"CLASSIFICATION_TYPE":"U","NORAD_CAT_ID":54648,"ELEMENT_SET_NO":999,"REV_AT_EPOCH":13524,"BSTAR":0.00019758813,"MEAN_MOTION_DOT":9.5e-7,"MEAN_MOTION_DDOT":0},{"OBJECT_NAME":"ONEWEB-0582","OBJECT_ID":"2022-166H","EPOCH":"2025-09-15T13:54:30.515904","MEAN_MOTION":13.21823207,"ECCENTRICITY":0.00022602,"INCLINATION":87.9196,"RA_OF_ASC_NODE":298.781,"ARG_OF_PERICENTER":84.5456,"MEAN_ANOMALY":275.5936,"EPHEMERIS_TYPE":0,"CLASSIFICATION_TYPE":"U","NORAD_CAT_ID":54649,"ELEMENT_SET_NO":999,"REV_AT_EPOCH":13524,"BSTAR":2.6545769e-5,"MEAN_MOTION_DOT":2.4e-7,"MEAN_MOTION_DDOT":0},{"OBJECT_NAME":"ONEWEB-0583","OBJECT_ID":"2022-166J","EPOCH":"2025-09-15T14:10:24.625920","MEAN_MOTION":13.21823688,"ECCENTRICITY":0.00019406,"INCLINATION":87.9204,"RA_OF_ASC_NODE":298.8039,"ARG_OF_PERICENTER":90.4979,"MEAN_ANOMALY":269.6378,"EPHEMERIS_TYPE":0,"CLASSIFICATION_TYPE":"U","NORAD_CAT_ID":54650,"ELEMENT_SET_NO":999,"REV_AT_EPOCH":13525,"BSTAR":6.9330132e-5,"MEAN_MOTION_DOT":4.2e-7,"MEAN_MOTION_DDOT":0},{"OBJECT_NAME":"ONEWEB-0584","OBJECT_ID":"2022-166K","EPOCH":"2025-09-15T14:39:55.887264","MEAN_MOTION":13.21824244,"ECCENTRICITY":0.00022754,"INCLINATION":87.9204,"RA_OF_ASC_NODE":298.7843,"ARG_OF_PERICENTER":88.6389,"MEAN_ANOMALY":271.5006,"EPHEMERIS_TYPE":0,"CLASSIFICATION_TYPE":"U","NORAD_CAT_ID":54651,"ELEMENT_SET_NO":999,"REV_AT_EPOCH":13524,"BSTAR":0.00015612515,"MEAN_MOTION_DOT":7.8e-7,"MEAN_MOTION_DDOT":0},{"OBJECT_NAME":"ONEWEB-0585","OBJECT_ID":"2022-166L","EPOCH":"2025-09-15T11:38:15.294336","MEAN_MOTION":13.21827379,"ECCENTRICITY":0.0001867,"INCLINATION":87.9203,"RA_OF_ASC_NODE":298.7953,"ARG_OF_PERICENTER":98.2438,"MEAN_ANOMALY":261.8908,"EPHEMERIS_TYPE":0,"CLASSIFICATION_TYPE":"U","NORAD_CAT_ID":54652,"ELEMENT_SET_NO":999,"REV_AT_EPOCH":13523,"BSTAR":-0.00022855195,"MEAN_MOTION_DOT":-8.1e-7,"MEAN_MOTION_DDOT":0},{"OBJECT_NAME":"ONEWEB-0586","OBJECT_ID":"2022-166M","EPOCH":"2025-09-15T13:45:26.341056","MEAN_MOTION":13.21824141,"ECCENTRICITY":0.0002004,"INCLINATION":87.9205,"RA_OF_ASC_NODE":298.8025,"ARG_OF_PERICENTER":89.5709,"MEAN_ANOMALY":270.5654,"EPHEMERIS_TYPE":0,"CLASSIFICATION_TYPE":"U","NORAD_CAT_ID":54653,"ELEMENT_SET_NO":999,"REV_AT_EPOCH":13524,"BSTAR":-0.00018316393,"MEAN_MOTION_DOT":-6.3e-7,"MEAN_MOTION_DDOT":0},{"OBJECT_NAME":"ONEWEB-0587","OBJECT_ID":"2022-166N","EPOCH":"2025-09-15T13:59:05.010432","MEAN_MOTION":13.21824964,"ECCENTRICITY":0.0001818,"INCLINATION":87.9209,"RA_OF_ASC_NODE":298.7484,"ARG_OF_PERICENTER":106.7632,"MEAN_ANOMALY":253.3702,"EPHEMERIS_TYPE":0,"CLASSIFICATION_TYPE":"U","NORAD_CAT_ID":54654,"ELEMENT_SET_NO":999,"REV_AT_EPOCH":13540,"BSTAR":-0.00026469254,"MEAN_MOTION_DOT":-9.6e-7,"MEAN_MOTION_DDOT":0},{"OBJECT_NAME":"ONEWEB-0589","OBJECT_ID":"2022-166P","EPOCH":"2025-09-15T13:40:53.595264","MEAN_MOTION":13.21824006,"ECCENTRICITY":0.00026174,"INCLINATION":87.9204,"RA_OF_ASC_NODE":298.7946,"ARG_OF_PERICENTER":81.8823,"MEAN_ANOMALY":278.2608,"EPHEMERIS_TYPE":0,"CLASSIFICATION_TYPE":"U","NORAD_CAT_ID":54655,"ELEMENT_SET_NO":999,"REV_AT_EPOCH":13526,"BSTAR":-6.1842098e-5,"MEAN_MOTION_DOT":-1.3e-7,"MEAN_MOTION_DDOT":0},{"OBJECT_NAME":"ONEWEB-0590","OBJECT_ID":"2022-166Q","EPOCH":"2025-09-15T14:14:46.566528","MEAN_MOTION":13.21826015,"ECCENTRICITY":0.00023363,"INCLINATION":87.9199,"RA_OF_ASC_NODE":298.7663,"ARG_OF_PERICENTER":102.2423,"MEAN_ANOMALY":257.8973,"EPHEMERIS_TYPE":0,"CLASSIFICATION_TYPE":"U","NORAD_CAT_ID":54656,"ELEMENT_SET_NO":999,"REV_AT_EPOCH":13525,"BSTAR":7.8687306e-5,"MEAN_MOTION_DOT":4.6e-7,"MEAN_MOTION_DDOT":0},{"OBJECT_NAME":"ONEWEB-0591","OBJECT_ID":"2022-166R","EPOCH":"2025-09-15T14:33:07.128864","MEAN_MOTION":13.21823772,"ECCENTRICITY":0.00020514,"INCLINATION":87.9202,"RA_OF_ASC_NODE":298.7876,"ARG_OF_PERICENTER":92.7985,"MEAN_ANOMALY":267.3384,"EPHEMERIS_TYPE":0,"CLASSIFICATION_TYPE":"U","NORAD_CAT_ID":54657,"ELEMENT_SET_NO":999,"REV_AT_EPOCH":13528,"BSTAR":0.00013131326,"MEAN_MOTION_DOT":6.7e-7,"MEAN_MOTION_DDOT":0},{"OBJECT_NAME":"ONEWEB-0592","OBJECT_ID":"2022-166S","EPOCH":"2025-09-15T14:37:39.912672","MEAN_MOTION":13.21823802,"ECCENTRICITY":0.00020629,"INCLINATION":87.9209,"RA_OF_ASC_NODE":298.7418,"ARG_OF_PERICENTER":93.9066,"MEAN_ANOMALY":266.2303,"EPHEMERIS_TYPE":0,"CLASSIFICATION_TYPE":"U","NORAD_CAT_ID":54658,"ELEMENT_SET_NO":999,"REV_AT_EPOCH":13516,"BSTAR":0.00012669189,"MEAN_MOTION_DOT":6.5e-7,"MEAN_MOTION_DDOT":0},{"OBJECT_NAME":"ONEWEB-0593","OBJECT_ID":"2022-166T","EPOCH":"2025-09-15T09:44:42.204192","MEAN_MOTION":13.21823312,"ECCENTRICITY":0.00020293,"INCLINATION":87.9203,"RA_OF_ASC_NODE":298.8175,"ARG_OF_PERICENTER":90.5108,"MEAN_ANOMALY":269.6258,"EPHEMERIS_TYPE":0,"CLASSIFICATION_TYPE":"U","NORAD_CAT_ID":54659,"ELEMENT_SET_NO":999,"REV_AT_EPOCH":13524,"BSTAR":-0.00016685528,"MEAN_MOTION_DOT":-5.6e-7,"MEAN_MOTION_DDOT":0}]
